HAWK-6B                 
1 55324U 23011A   26160.37935149  .00003947  00000+0  17318-3 0  9997
2 55324  40.4990  37.6099 0003732 318.4119  41.6406 15.22858702186650
HAWK-6C                 
1 55326U 23011C   26160.37868958  .00004206  00000+0  18395-3 0  9997
2 55326  40.4982  34.4522 0004314 308.3612  51.6810 15.22867772186660
HAWK-6A                 
1 55327U 23011D   26159.98526055  .00003875  00000+0  17018-3 0  9994
2 55327  40.4991  38.3707 0004034 304.4298  55.6129 15.22856626186602
HAWK-7A                 
1 56191U 23054P   26160.18288417  .00001500  00000+0  58826-4 0  9998
2 56191  97.2719  47.7255 0004817  79.4079 280.7703 15.27271822175800
HAWK-7B                 
1 56193U 23054R   26160.18279964  .00004855  00000+0  18433-3 0  9992
2 56193  97.2739  45.9844 0004011  84.5267 275.6430 15.27279046175806
HAWK-7C                 
1 56200U 23054Y   26160.44476182  .00005061  00000+0  19203-3 0  9997
2 56200  97.2717  47.0110 0004097  76.1703 283.9992 15.27278820175844
